[
    {
        "Altitude(m)": 611965.2325666447,
        "Argument of Periapsis(deg)": 0.0,
        "Eccentricity": 0.0,
        "Inclination(deg)": 60.0,
        "Latitude(deg)": 59.1403046721898,
        "Longitude(deg)": 123.96988452107992,
        "Mean Anomaly(deg)": 81.81820000000003,
        "RAAN(deg)": 150.0,
        "Satellite Name": "Test1 665",
        "Satellite Number": 665,
        "Semi-Major Axis(m)": 6980739.136638005,
        "Time(s)": 0
    },
    {
        "Altitude(m)": 611995.8576754343,
        "Argument of Periapsis(deg)": 0.00010418945913296404,
        "Eccentricity": 0.0,
        "Inclination(deg)": 60.0,
        "Latitude(deg)": 59.28340383609725,
        "Longitude(deg)": 125.10325181519006,
        "Mean Anomaly(deg)": 82.43830614546184,
        "RAAN(deg)": 149.99957995086027,
        "Satellite Name": "Test1 665",
        "Satellite Number": 665,
        "Semi-Major Axis(m)": 6980739.136638005,
        "Time(s)": 10
    }
]